[{"OBJECT_NAME":"STARLINK-5909","OBJECT_ID":"2023-037AA","EPOCH":"2026-03-09T21:59:20.704704","MEAN_MOTION":14.98313639,"ECCENTRICITY":0.00021987,"INCLINATION":69.998,"RA_OF_ASC_NODE":283.9048,"ARG_OF_PERICENTER":269.5464,"MEAN_ANOMALY":90.5443,"EPHEMERIS_TYPE":0,"CLASSIFICATION_TYPE":"U","NORAD_CAT_ID":55938,"ELEMENT_SET_NO":999,"REV_AT_EPOCH":16401,"BSTAR":5.5307657e-5,"MEAN_MOTION_DOT":5.67e-6,"MEAN_MOTION_DDOT":0},{"OBJECT_NAME":"COSMOS 2251 DEB","OBJECT_ID":"1993-036APM","EPOCH":"2026-03-04T21:32:54.192480","MEAN_MOTION":14.96947229,"ECCENTRICITY":0.00350755,"INCLINATION":73.891,"RA_OF_ASC_NODE":257.2416,"ARG_OF_PERICENTER":202.261,"MEAN_ANOMALY":157.7054,"EPHEMERIS_TYPE":0,"CLASSIFICATION_TYPE":"U","NORAD_CAT_ID":35670,"ELEMENT_SET_NO":999,"REV_AT_EPOCH":88955,"BSTAR":0.0015922685,"MEAN_MOTION_DOT":0.00018541,"MEAN_MOTION_DDOT":0}]
